"full_name","e","q","i","om","w","ad","per_y","class","n_obs_used","A1","A2","A3","DT","spkid","prefix","neo","M1","M2","K1","K2","PC","diameter","extent","albedo","rot_per","GM","orbit_id","epoch","epoch_mjd","epoch_cal","equinox","a","ma","n","tp","per","moid","moid_ld","moid_jup","t_jup","sigma_e","sigma_a","sigma_q","sigma_i","sigma_om","sigma_w","sigma_ma","sigma_ad","sigma_n","sigma_tp","sigma_per","rms","A1_sigma","A2_sigma","A3_sigma","DT_sigma"
"     C/2017 Y2 (PANSTARRS)",1.0010,4.632,128.42,65.99,147.86,,,HYP,961,,,,,1003551,C,,8.6,11.4,8.,5.,0.03,,,,,,"JPL 45",2459094.5,59094,2020-09-02.0,J2000,-4805,-0.00,2.959e-06,2459158.06,,3.71,1.44e+03,0.341,-1.4,4.0e-06,2.0e+01,2.1e-06,1.4e-05,1.5e-05,4.3e-05,1.2e-06,,1.8e-08,3.5e-04,,.50032,,,,
"     P/2017 Y3 (Leonard)",0.8707,1.275,27.59,153.87,67.53,18.45,31,HTC,93,,,,,1003554,P,Y,16.5,18.6,11.,5.,0.03,,,,,,"JPL 9",2458169.5,58169,2018-02-20.0,J2000,9.865,0.28,0.03181,2458160.76,1.13e+04,0.491,191,0.441,1.73,1.2e-05,9.5e-04,3.0e-06,5.8e-05,1.2e-04,2.3e-04,4.5e-05,1.8e-03,4.6e-06,2.4e-04,1.6e+00,.64057,,,,
"     C/2018 A1 (PANSTARRS)",0.9044,2.419,53.56,336.62,96.39,48.19,127,HTC,118,,,,,1003555,C,,15.1,,5.,,,,,,,,"JPL 12",2458155.5,58155,2018-02-06.0,J2000,25.3,0.84,0.007744,2458046.93,4.65e+04,1.94,754,0.15,1.32,3.6e-05,9.8e-03,4.3e-05,5.9e-04,6.3e-04,2.2e-03,5.1e-04,1.9e-02,4.5e-06,4.5e-03,2.7e+01,.54407,,,,
"     C/2018 A3 (ATLAS)",0.9934,3.277,139.56,194.28,86.43,988.63,1.1e+04,COM,1589,,,,,1003556,C,,9.4,11.9,9.,5.,0.03,,,,,,"JPL 30",2458459.5,58459,2018-12-07.0,J2000,496,360.00,8.924e-05,2458496.36,4.03e+06,2.6,1.01e+03,0.288,-1.69,2.2e-06,1.6e-01,8.2e-07,9.9e-06,1.4e-05,2.8e-05,1.6e-06,3.3e-01,4.4e-08,1.5e-04,2.0e+03,.49984,,,,
"     C/2018 A4 (PANSTARRS)",0.8044,2.403,3.15,97.63,356.14,22.16,43,JFc,79,,,,,1003557,C,,8.4,15.4,22.25,5.,0.03,,,,,,"JPL 11",2458133.5,58133,2018-01-15.0,J2000,12.28,357.16,0.0229,2458257.31,1.57e+04,1.42,552,0.157,2.25,8.7e-05,5.4e-03,2.5e-05,1.1e-04,2.0e-03,3.0e-03,1.8e-03,9.7e-03,1.5e-05,2.6e-03,1.0e+01,.50435,,,,
"     P/2018 A5 (PANSTARRS)",0.5230,2.694,23.58,87.83,359.68,8.60,13.4,JFc,36,,,,,1003558,P,,17.7,,4.5,,,,,,,,"JPL 4",2458098.5,58098,2017-12-11.0,J2000,5.648,5.74,0.07343,2458020.32,4.9e+03,1.71,665,1.82,2.55,3.0e-05,3.8e-04,1.4e-05,1.7e-04,2.0e-04,1.4e-03,5.6e-04,5.8e-04,7.4e-06,5.8e-03,4.9e-01,.23608,,,,
"     C/2018 A6 (Gibbs)",0.8034,3.018,76.95,340.39,264.54,27.69,60.2,HTC,915,,,,,1003559,C,,9.7,,7.25,,,,,,,,"JPL 57",2458827.5,58827,2019-12-10.0,J2000,15.35,2.44,0.01639,2458678.80,2.2e+04,2.72,1.06e+03,0.226,0.801,9.1e-07,7.0e-05,4.6e-07,2.0e-05,9.7e-06,2.0e-05,1.7e-05,1.3e-04,1.1e-07,1.4e-04,1.5e-01,.57677,,,,
"     C/2018 B1 (Lemmon)",1.0030,5.117,162.42,133.17,68.35,,,HYP,316,,,,,1003560,C,,12.3,,4.5,,,,,,,,"JPL 17",2458413.5,58413,2018-10-22.0,J2000,-1723,0.00,1.378e-05,2458207.94,,4.18,1.63e+03,0.975,,1.0e-05,5.8e+00,8.9e-06,1.6e-05,1.2e-04,1.9e-04,1.4e-05,,6.9e-08,1.3e-03,,.54656,,,,
"     P/2018 C1 (Lemmon-Read)",0.5345,2.596,5.13,270.45,234.33,8.56,13.2,JFc,121,,,,,1003561,P,,14.0,16.3,10.,5.,0.03,,,,,,"JPL 10",2458178.5,58178,2018-03-01.0,J2000,5.576,0.26,0.07486,2458175.07,4.81e+03,1.61,628,0.104,2.68,2.2e-05,3.3e-04,3.0e-05,8.5e-05,1.5e-03,8.7e-03,2.0e-03,5.1e-04,6.6e-06,2.7e-02,4.3e-01,.43545,,,,
"     C/2018 C2 (Lemmon)",1.0018,1.957,34.45,91.14,134.14,,,HYP,1672,,,,,1003566,C,,7.6,14.8,26.5,5.,0.03,,,,,,"JPL 12",2458258.5,58258,2018-05-20.0,J2000,-1083,-0.00,2.765e-05,2458271.72,,1.06,413,1.41,,4.8e-06,2.9e+00,1.8e-06,4.0e-05,4.6e-05,1.5e-04,1.5e-06,,1.1e-07,2.7e-04,,.27461,,,,
"     C/2018 DO4 (Lemmon)",0.9070,2.406,160.47,251.13,175.97,49.31,131,HTC,660,,,,,1003642,C,,13.2,13.8,6.5,5.,0.03,,,,,,"JPL 40",2458673.5,58673,2019-07-09.0,J2000,25.86,359.70,0.007496,2458713.91,4.8e+04,1.42,553,1.57,-1.57,5.5e-07,1.5e-04,3.1e-07,8.5e-06,2.2e-05,2.5e-05,2.7e-06,2.9e-04,6.6e-08,5.2e-05,4.3e-01,.4226,,,,
"     C/2018 E1 (ATLAS)",0.9503,2.705,72.48,146.84,299.47,106.27,402,COM,227,,,,,1003564,C,,11.4,12.8,8.75,5.,0.03,,,,,,"JPL 10",2458222.5,58222,2018-04-14.0,J2000,54.49,359.99,0.002451,2458225.82,1.47e+05,2.08,811,1.54,0.702,5.0e-06,5.4e-03,1.3e-06,3.0e-05,2.7e-05,8.4e-05,2.0e-06,1.1e-02,3.7e-07,3.5e-04,2.2e+01,.38357,,,,
"     C/2018 E2 (Barros)",0.9976,3.922,97.74,67.20,277.48,3265.63,6.61e+04,COM,62,,,,,1003563,C,,9.9,14.1,10.25,5.,0.03,,,,,,"JPL 9",2458202.5,58202,2018-03-25.0,J2000,1635,0.00,1.491e-05,2458111.19,2.41e+07,3.67,1.43e+03,1.32,-0.327,1.6e-05,1.1e+01,6.4e-06,6.6e-05,8.4e-05,1.7e-04,1.4e-05,2.2e+01,1.5e-07,1.1e-03,2.4e+05,.47925,,,,
"     C/2018 EN4 (NEOWISE)",0.9214,1.448,81.56,136.17,35.01,35.40,79.1,HTC,77,,,,,1003575,C,,13.6,,21.5,,,,,,,,"JPL 13",2458248.5,58248,2018-05-10.0,J2000,18.43,359.64,0.01246,2458277.28,2.89e+04,0.568,221,2.11,0.497,1.5e-05,3.7e-03,3.3e-06,8.4e-05,1.1e-04,2.4e-04,1.1e-04,7.0e-03,3.7e-06,3.2e-04,8.6e+00,.45533,,,,
"     C/2018 EF9 (Lemmon)",0.9976,1.557,84.69,172.58,72.62,1281.83,1.63e+04,COM,191,,,,,1003569,C,,8.6,17.8,45.25,5.,0.03,,,,,,"JPL 18",2458226.5,58226,2018-04-18.0,J2000,641.7,360.00,6.063e-05,2458261.63,5.94e+06,1.04,406,0.241,0.151,1.2e-05,3.1e+00,4.5e-06,1.4e-04,7.1e-05,3.2e-04,1.6e-05,6.3e+00,4.5e-07,5.0e-04,4.4e+04,.58216,,,,
"     C/2018 F1 (Grauer)",0.9907,2.993,46.07,177.29,71.63,641.41,5.78e+03,COM,221,,,,,1003565,C,,12.7,,6.25,,,,,,,,"JPL 14",2458548.5,58548,2019-03-06.0,J2000,322.2,0.01,0.0001704,2458466.58,2.11e+06,2.32,903,0.727,1.5,1.9e-05,6.6e-01,6.4e-06,5.1e-05,3.3e-05,3.3e-04,4.3e-05,1.3e+00,5.2e-07,1.8e-03,6.5e+03,.53367,,,,
"     C/2018 F3 (Johnson)",1.0000,2.483,105.53,173.03,293.01,,,HYP,51,,,,,1003567,C,,12.9,,10.,,,,,,,,"JPL 4",2458200.5,58200,2018-03-23.0,J2000,-1.529e+05,0.00,1.649e-08,2457980.73,,1.94,753,1.47,,1.3e-02,1.2e+08,8.5e-03,1.9e-01,2.1e-02,3.8e-01,4.4e-03,,2.0e-05,1.3e+00,,.71903,,,,
"     C/2018 F4 (PANSTARRS)",1.0015,3.440,78.10,26.51,263.20,,,HYP,530,,,,,1003568,C,,5.3,11.2,13.25,5.,0.03,,,,,,"JPL 51",2458746.5,58746,2019-09-20.0,J2000,-2261,-0.00,9.168e-06,2458821.56,,3.16,1.23e+03,0.597,,2.9e-06,4.4e+00,9.9e-07,2.4e-05,1.5e-05,4.0e-05,2.0e-06,,2.7e-08,2.9e-04,,1.031,,,,
"     C/2018 F4-A (PANSTARRS)",1.0013,3.440,78.10,26.51,263.22,,,HYP,146,,,,,1003725,C,,11.4,,5.5,,,,,,,,"JPL 11",2459200.5,59200,2020-12-17.0,J2000,-2581,0.00,7.517e-06,2458821.62,,3.16,1.23e+03,0.596,,2.1e-05,4.1e+01,2.7e-05,1.1e-04,8.0e-05,6.5e-04,6.8e-05,,1.8e-07,3.2e-03,,.47733,,,,
"     C/2018 F4-B (PANSTARRS)",1.0014,3.440,78.09,26.51,263.21,,,HYP,167,,,,,1003726,C,,7.4,12.2,11.75,5.,0.03,,,,,,"JPL 11",2459253.5,59253,2021-02-08.0,J2000,-2428,0.00,8.236e-06,2458821.56,,3.16,1.23e+03,0.595,,2.0e-05,3.4e+01,2.4e-05,7.9e-05,4.8e-05,5.7e-04,7.5e-05,,1.7e-07,3.1e-03,,.56801,,,,
"     P/2018 H2 (PANSTARRS)",0.5400,2.027,7.39,68.46,120.23,6.79,9.25,JFc,169,,,,,1003570,P,,17.0,,4.5,,,,,,,,"JPL 5",2458234.5,58234,2018-04-26.0,J2000,4.407,9.86,0.1065,2458141.96,3.38e+03,1.04,405,0.0736,2.72,3.3e-05,3.2e-04,7.0e-06,1.9e-04,3.6e-04,2.7e-03,4.5e-04,5.0e-04,1.2e-05,7.1e-03,3.7e-01,.49182,,,,
"     C/2018 K1 (Weiland)",0.9372,1.879,164.19,260.00,325.00,57.98,164,HTC,163,,,,,1003572,C,,12.5,15.6,14.75,5.,0.03,,,,,,"JPL 5",2458273.5,58273,2018-06-04.0,J2000,29.93,0.35,0.006019,2458215.40,5.98e+04,0.886,345,0.745,-1.44,4.5e-05,2.1e-02,9.7e-06,9.3e-05,5.7e-05,8.9e-04,3.9e-04,4.2e-02,6.5e-06,2.1e-03,6.4e+01,.54802,,,,
"     C/2018 KJ3 (Lemmon)",0.9958,3.627,136.67,91.59,217.71,1729.53,2.55e+04,COM,465,,,,,1003581,C,,6.4,12.2,13.5,5.,0.03,,,,,,"JPL 25",2458340.5,58340,2018-08-10.0,J2000,866.6,359.98,3.864e-05,2458736.48,9.32e+06,2.71,1.06e+03,1.04,-1.71,1.2e-05,2.5e+00,1.5e-05,5.6e-05,4.6e-05,4.3e-04,6.7e-05,5.1e+00,1.7e-07,2.1e-03,4.1e+04,.60645,,,,
"     P/2018 L1 (PANSTARRS)",0.4833,1.886,10.59,268.63,17.89,5.41,6.97,JFc,69,,,,,1003573,P,,14.4,17.3,10.75,5.,0.03,,,,,,"JPL 6",2458296.5,58296,2018-06-27.0,J2000,3.65,340.42,0.1414,2458435.03,2.55e+03,0.872,339,0.0493,2.87,7.0e-05,5.6e-04,3.7e-05,2.1e-04,9.5e-04,3.0e-03,5.5e-03,8.3e-04,3.2e-05,7.1e-03,5.8e-01,.36018,,,,
"     C/2018 L2 (ATLAS)",0.9930,1.712,67.42,243.02,56.23,486.05,3.81e+03,COM,731,-2.7e-08,-1.8e-09,,,1003574,C,,9.5,12.0,10.75,5.,0.03,,,,,,"JPL 20",2458481.5,58481,2018-12-29.0,J2000,243.9,0.01,0.0002588,2458455.08,1.39e+06,0.985,383,1.14,0.643,4.7e-06,1.6e-01,1.8e-06,2.6e-05,2.0e-05,5.7e-05,7.0e-06,3.3e-01,2.6e-07,1.2e-04,1.4e+03,.55101,1.6e-09,1.3e-09,,
"     P/2018 L4 (PANSTARRS)",0.6603,1.676,26.63,145.19,140.43,8.19,11,JFc,129,,,,,1003576,P,,15.0,20.0,21.25,5.,0.03,,,,,,"JPL 7",2458298.5,58298,2018-06-29.0,J2000,4.935,357.05,0.08991,2458331.34,4e+03,0.727,283,0.0507,2.36,2.1e-05,3.3e-04,9.2e-06,2.9e-04,3.3e-04,7.1e-04,2.3e-04,5.5e-04,9.1e-06,1.0e-03,4.0e-01,.56441,,,,
"     C/2018 M1 (Catalina)",0.9387,1.303,37.26,339.46,14.13,41.22,98.1,HTC,171,,,,,1003578,C,,16.6,18.1,5.25,5.,0.03,,,,,,"JPL 8",2458346.5,58346,2018-08-16.0,J2000,21.26,0.37,0.01005,2458309.52,3.58e+04,0.309,120,2.13,1.35,1.9e-05,6.7e-03,4.5e-06,9.9e-05,2.4e-04,2.2e-04,1.8e-04,1.3e-02,4.8e-06,2.4e-04,1.7e+01,.60336,,,,
"     C/2018 N1 (NEOWISE)",0.9969,1.307,159.44,292.44,354.56,842.62,8.67e+03,COM,263,,,,,1003579,C,,14.8,16.9,11.75,5.,0.03,,,,,,"JPL 7",2458322.5,58322,2018-07-23.0,J2000,422,360.00,0.0001137,2458332.48,3.17e+06,0.292,114,1.4,-1.31,2.2e-05,3.0e+00,1.0e-06,5.1e-05,5.7e-05,1.9e-04,1.2e-05,6.0e+00,1.2e-06,1.8e-04,3.4e+04,.65749,,,,
"     C/2018 N2 (ASASSN)",1.0002,3.125,77.53,25.26,24.40,,,HYP,4653,,,,,1003580,C,,9.6,,4.5,,,,,,,,"JPL 71",2458905.5,58905,2020-02-26.0,J2000,-1.702e+04,0.00,4.438e-07,2458798.46,,2.19,854,1.64,0.474,1.1e-06,1.1e+02,3.9e-07,7.1e-06,5.3e-06,1.4e-05,4.4e-07,,4.1e-09,6.2e-05,,.43378,,,,
"     C/2018 O1 (ATLAS)",0.9441,1.558,154.04,87.62,162.50,54.19,147,HTC,331,,,,,1003582,C,,12.1,17.8,34.,5.,0.03,,,,,,"JPL 6",2458333.5,58333,2018-08-03.0,J2000,27.87,359.81,0.006698,2458362.07,5.38e+04,0.557,217,1.74,-1.19,3.2e-04,1.6e-01,4.3e-05,3.7e-04,2.0e-03,6.9e-03,1.7e-03,3.2e-01,5.9e-05,8.9e-03,4.7e+02,.47693,,,,
